{
"type": "FeatureCollection",
"name": "brannstasjoner_brannstasjon",
"crs": { "type": "name", "properties": { "name": "urn:ogc:def:crs:OGC:1.3:CRS84" } },
"features": [
{ "type": "Feature", "properties": { "objtype": "Brannstasjon", "anleggid": null, "brannstasjon": "Kvinlog", "brannvesen": "Brannvesenet Sør IKS", "forstedigitaliseringsdato": null, "oppdateringsdato": null, "opphav": "DSB", "noyaktighet": null, "informasjon": "", "stasjonstype": "L", "kasernert": "IK", "malemetode": null }, "geometry": { "type": "Point", "coordinates": [ 6.934757603053214, 58.522359083742096 ] } },
{ "type": "Feature", "properties": { "objtype": "Brannstasjon", "anleggid": null, "brannstasjon": "Vegårshei", "brannvesen": "Østre Agder Brannvesen", "forstedigitaliseringsdato": null, "oppdateringsdato": null, "opphav": "DSB", "noyaktighet": null, "informasjon": "", "stasjonstype": "L", "kasernert": "IK", "malemetode": null }, "geometry": { "type": "Point", "coordinates": [ 8.867825049853927, 58.748676848045292 ] } },
{ "type": "Feature", "properties": { "objtype": "Brannstasjon", "anleggid": null, "brannstasjon": "Spangereid", "brannvesen": "Brannvesenet Sør IKS", "forstedigitaliseringsdato": null, "oppdateringsdato": null, "opphav": "DSB", "noyaktighet": null, "informasjon": "", "stasjonstype": "L", "kasernert": "IK", "malemetode": null }, "geometry": { "type": "Point", "coordinates": [ 7.120018152156502, 58.037014927898667 ] } },
{ "type": "Feature", "properties": { "objtype": "Brannstasjon", "anleggid": null, "brannstasjon": "Valle", "brannvesen": "Setesdal Brannvesen IKS", "forstedigitaliseringsdato": null, "oppdateringsdato": null, "opphav": "DSB", "noyaktighet": null, "informasjon": "", "stasjonstype": "L", "kasernert": "IK", "malemetode": null }, "geometry": { "type": "Point", "coordinates": [ 7.538610598440351, 59.221675974042213 ] } },
{ "type": "Feature", "properties": { "objtype": "Brannstasjon", "anleggid": null, "brannstasjon": "Risør", "brannvesen": "Østre Agder Brannvesen", "forstedigitaliseringsdato": null, "oppdateringsdato": null, "opphav": "DSB", "noyaktighet": null, "informasjon": "", "stasjonstype": "L", "kasernert": "DA", "malemetode": null }, "geometry": { "type": "Point", "coordinates": [ 9.211233841116135, 58.718306632702173 ] } },
{ "type": "Feature", "properties": { "objtype": "Brannstasjon", "anleggid": null, "brannstasjon": "Søgne", "brannvesen": "Kristiansandsregionen BR", "forstedigitaliseringsdato": null, "oppdateringsdato": null, "opphav": "DSB", "noyaktighet": null, "informasjon": "", "stasjonstype": "L", "kasernert": "IK", "malemetode": null }, "geometry": { "type": "Point", "coordinates": [ 7.802751374177198, 58.092483670221768 ] } },
{ "type": "Feature", "properties": { "objtype": "Brannstasjon", "anleggid": null, "brannstasjon": "Byremo", "brannvesen": "Brannvesenet Sør IKS", "forstedigitaliseringsdato": null, "oppdateringsdato": null, "opphav": "DSB", "noyaktighet": null, "informasjon": "", "stasjonstype": "L", "kasernert": "IK", "malemetode": null }, "geometry": { "type": "Point", "coordinates": [ 7.401935838776557, 58.421663213628612 ] } },
{ "type": "Feature", "properties": { "objtype": "Brannstasjon", "anleggid": null, "brannstasjon": "Lillesand", "brannvesen": "Kristiansandsregionen BR", "forstedigitaliseringsdato": null, "oppdateringsdato": null, "opphav": "DSB", "noyaktighet": null, "informasjon": "", "stasjonstype": "L", "kasernert": "IK", "malemetode": null }, "geometry": { "type": "Point", "coordinates": [ 8.385253880129705, 58.259923839849165 ] } },
{ "type": "Feature", "properties": { "objtype": "Brannstasjon", "anleggid": null, "brannstasjon": "Åmli", "brannvesen": "Østre Agder Brannvesen", "forstedigitaliseringsdato": null, "oppdateringsdato": null, "opphav": "DSB", "noyaktighet": null, "informasjon": "", "stasjonstype": "L", "kasernert": "IK", "malemetode": null }, "geometry": { "type": "Point", "coordinates": [ 8.483409402795711, 58.757568709911382 ] } },
{ "type": "Feature", "properties": { "objtype": "Brannstasjon", "anleggid": null, "brannstasjon": "Froland", "brannvesen": "Østre Agder Brannvesen", "forstedigitaliseringsdato": null, "oppdateringsdato": null, "opphav": "DSB", "noyaktighet": null, "informasjon": "", "stasjonstype": "L", "kasernert": "IK", "malemetode": null }, "geometry": { "type": "Point", "coordinates": [ 8.625843083216223, 58.513354174274163 ] } },
{ "type": "Feature", "properties": { "objtype": "Brannstasjon", "anleggid": null, "brannstasjon": "Evje", "brannvesen": "Setesdal Brannvesen IKS", "forstedigitaliseringsdato": null, "oppdateringsdato": null, "opphav": "DSB", "noyaktighet": null, "informasjon": "", "stasjonstype": "H", "kasernert": "IK", "malemetode": null }, "geometry": { "type": "Point", "coordinates": [ 7.783801217733172, 58.578715300376729 ] } },
{ "type": "Feature", "properties": { "objtype": "Brannstasjon", "anleggid": null, "brannstasjon": "Tjørhom", "brannvesen": "Sirdal brann -og redningsvesen", "forstedigitaliseringsdato": null, "oppdateringsdato": null, "opphav": "DSB", "noyaktighet": null, "informasjon": "", "stasjonstype": "L", "kasernert": "IK", "malemetode": null }, "geometry": { "type": "Point", "coordinates": [ 6.855350481051156, 58.901060754939238 ] } },
{ "type": "Feature", "properties": { "objtype": "Brannstasjon", "anleggid": null, "brannstasjon": "Birkeland", "brannvesen": "Brannvesenet Sør IKS", "forstedigitaliseringsdato": null, "oppdateringsdato": null, "opphav": "DSB", "noyaktighet": null, "informasjon": "", "stasjonstype": "L", "kasernert": "IK", "malemetode": null }, "geometry": { "type": "Point", "coordinates": [ 7.223754231025192, 58.375404069561114 ] } },
{ "type": "Feature", "properties": { "objtype": "Brannstasjon", "anleggid": null, "brannstasjon": "Iveland", "brannvesen": "Setesdal Brannvesen IKS", "forstedigitaliseringsdato": null, "oppdateringsdato": null, "opphav": "DSB", "noyaktighet": null, "informasjon": "", "stasjonstype": "L", "kasernert": "IK", "malemetode": null }, "geometry": { "type": "Point", "coordinates": [ 7.916167031213905, 58.453284154700079 ] } },
{ "type": "Feature", "properties": { "objtype": "Brannstasjon", "anleggid": null, "brannstasjon": "Flekkefjord", "brannvesen": "Flekkefjord brannvesen", "forstedigitaliseringsdato": null, "oppdateringsdato": null, "opphav": "DSB", "noyaktighet": null, "informasjon": "", "stasjonstype": "H", "kasernert": "DN", "malemetode": null }, "geometry": { "type": "Point", "coordinates": [ 6.663336905143861, 58.297709024878841 ] } },
{ "type": "Feature", "properties": { "objtype": "Brannstasjon", "anleggid": null, "brannstasjon": "Grimstad", "brannvesen": "Grimstad brann- og feiertjenesten", "forstedigitaliseringsdato": null, "oppdateringsdato": null, "opphav": "DSB", "noyaktighet": null, "informasjon": "", "stasjonstype": "H", "kasernert": "DA", "malemetode": null }, "geometry": { "type": "Point", "coordinates": [ 8.598329027696902, 58.345773938113155 ] } },
{ "type": "Feature", "properties": { "objtype": "Brannstasjon", "anleggid": null, "brannstasjon": "Hovden", "brannvesen": "Setesdal Brannvesen IKS", "forstedigitaliseringsdato": null, "oppdateringsdato": null, "opphav": "DSB", "noyaktighet": null, "informasjon": "", "stasjonstype": "L", "kasernert": "IK", "malemetode": null }, "geometry": { "type": "Point", "coordinates": [ 7.363736311672245, 59.553529440107276 ] } },
{ "type": "Feature", "properties": { "objtype": "Brannstasjon", "anleggid": null, "brannstasjon": "Sirdal", "brannvesen": "Sirdal brann -og redningsvesen", "forstedigitaliseringsdato": null, "oppdateringsdato": null, "opphav": "DSB", "noyaktighet": null, "informasjon": "", "stasjonstype": "H", "kasernert": "IK", "malemetode": null }, "geometry": { "type": "Point", "coordinates": [ 6.714074911303186, 58.668644584938036 ] } },
{ "type": "Feature", "properties": { "objtype": "Brannstasjon", "anleggid": null, "brannstasjon": "Moland", "brannvesen": "Østre Agder Brannvesen", "forstedigitaliseringsdato": null, "oppdateringsdato": null, "opphav": "DSB", "noyaktighet": null, "informasjon": "", "stasjonstype": "L", "kasernert": "IK", "malemetode": null }, "geometry": { "type": "Point", "coordinates": [ 8.86908880652736, 58.499671142666038 ] } },
{ "type": "Feature", "properties": { "objtype": "Brannstasjon", "anleggid": null, "brannstasjon": "Bykle", "brannvesen": "Setesdal Brannvesen IKS", "forstedigitaliseringsdato": null, "oppdateringsdato": null, "opphav": "DSB", "noyaktighet": null, "informasjon": "", "stasjonstype": "L", "kasernert": "IK", "malemetode": null }, "geometry": { "type": "Point", "coordinates": [ 7.36431664416727, 59.356552425265455 ] } },
{ "type": "Feature", "properties": { "objtype": "Brannstasjon", "anleggid": null, "brannstasjon": "Konsmo", "brannvesen": "Brannvesenet Sør IKS", "forstedigitaliseringsdato": null, "oppdateringsdato": null, "opphav": "DSB", "noyaktighet": null, "informasjon": "", "stasjonstype": "L", "kasernert": "IK", "malemetode": null }, "geometry": { "type": "Point", "coordinates": [ 7.353988120599885, 58.284085633690708 ] } },
{ "type": "Feature", "properties": { "objtype": "Brannstasjon", "anleggid": null, "brannstasjon": "Farsund", "brannvesen": "Brannvesenet Sør IKS", "forstedigitaliseringsdato": null, "oppdateringsdato": null, "opphav": "DSB", "noyaktighet": null, "informasjon": "", "stasjonstype": "L", "kasernert": "IK", "malemetode": null }, "geometry": { "type": "Point", "coordinates": [ 6.787246163945778, 58.085610338635547 ] } },
{ "type": "Feature", "properties": { "objtype": "Brannstasjon", "anleggid": null, "brannstasjon": "Vanse", "brannvesen": "Brannvesenet Sør IKS", "forstedigitaliseringsdato": null, "oppdateringsdato": null, "opphav": "DSB", "noyaktighet": null, "informasjon": "", "stasjonstype": "L", "kasernert": "IK", "malemetode": null }, "geometry": { "type": "Point", "coordinates": [ 6.689042865089212, 58.097112079097627 ] } },
{ "type": "Feature", "properties": { "objtype": "Brannstasjon", "anleggid": null, "brannstasjon": "Mandal", "brannvesen": "Brannvesenet Sør IKS", "forstedigitaliseringsdato": null, "oppdateringsdato": null, "opphav": "DSB", "noyaktighet": null, "informasjon": "", "stasjonstype": "H", "kasernert": "DN", "malemetode": null }, "geometry": { "type": "Point", "coordinates": [ 7.445663914914446, 58.02896111841693 ] } },
{ "type": "Feature", "properties": { "objtype": "Brannstasjon", "anleggid": null, "brannstasjon": "Tvedestrand", "brannvesen": "Østre Agder Brannvesen", "forstedigitaliseringsdato": null, "oppdateringsdato": null, "opphav": "DSB", "noyaktighet": null, "informasjon": "", "stasjonstype": "L", "kasernert": "IK", "malemetode": null }, "geometry": { "type": "Point", "coordinates": [ 8.924652351855613, 58.627871681768276 ] } },
{ "type": "Feature", "properties": { "objtype": "Brannstasjon", "anleggid": null, "brannstasjon": "Lyngdal", "brannvesen": "Brannvesenet Sør IKS", "forstedigitaliseringsdato": null, "oppdateringsdato": null, "opphav": "DSB", "noyaktighet": null, "informasjon": "", "stasjonstype": "L", "kasernert": "IK", "malemetode": null }, "geometry": { "type": "Point", "coordinates": [ 7.058748567117923, 58.141420818904962 ] } },
{ "type": "Feature", "properties": { "objtype": "Brannstasjon", "anleggid": null, "brannstasjon": "Arendal", "brannvesen": "Østre Agder Brannvesen", "forstedigitaliseringsdato": null, "oppdateringsdato": null, "opphav": "DSB", "noyaktighet": null, "informasjon": "", "stasjonstype": "H", "kasernert": "DN", "malemetode": null }, "geometry": { "type": "Point", "coordinates": [ 8.723526160666957, 58.460502232917712 ] } },
{ "type": "Feature", "properties": { "objtype": "Brannstasjon", "anleggid": null, "brannstasjon": "Kristiansand", "brannvesen": "Kristiansandsregionen BR", "forstedigitaliseringsdato": null, "oppdateringsdato": null, "opphav": "DSB", "noyaktighet": null, "informasjon": "", "stasjonstype": "H", "kasernert": "DN", "malemetode": null }, "geometry": { "type": "Point", "coordinates": [ 7.99936177220739, 58.155659180364246 ] } },
{ "type": "Feature", "properties": { "objtype": "Brannstasjon", "anleggid": null, "brannstasjon": "Gjerstad", "brannvesen": "Østre Agder Brannvesen", "forstedigitaliseringsdato": null, "oppdateringsdato": null, "opphav": "DSB", "noyaktighet": null, "informasjon": "", "stasjonstype": "L", "kasernert": "IK", "malemetode": null }, "geometry": { "type": "Point", "coordinates": [ 9.011884841484701, 58.873079689492073 ] } },
{ "type": "Feature", "properties": { "objtype": "Brannstasjon", "anleggid": null, "brannstasjon": "Åseral", "brannvesen": "Brannvesenet Sør IKS", "forstedigitaliseringsdato": null, "oppdateringsdato": null, "opphav": "DSB", "noyaktighet": null, "informasjon": "", "stasjonstype": "L", "kasernert": "IK", "malemetode": null }, "geometry": { "type": "Point", "coordinates": [ 7.411463230621638, 58.6176771714984 ] } },
{ "type": "Feature", "properties": { "objtype": "Brannstasjon", "anleggid": null, "brannstasjon": "Bygland", "brannvesen": "Setesdal Brannvesen IKS", "forstedigitaliseringsdato": null, "oppdateringsdato": null, "opphav": "DSB", "noyaktighet": null, "informasjon": "", "stasjonstype": "L", "kasernert": "IK", "malemetode": null }, "geometry": { "type": "Point", "coordinates": [ 7.800241023636818, 58.834775284766899 ] } },
{ "type": "Feature", "properties": { "objtype": "Brannstasjon", "anleggid": null, "brannstasjon": "Marnardal", "brannvesen": "Brannvesenet Sør IKS", "forstedigitaliseringsdato": null, "oppdateringsdato": null, "opphav": "DSB", "noyaktighet": null, "informasjon": "", "stasjonstype": "L", "kasernert": "IK", "malemetode": null }, "geometry": { "type": "Point", "coordinates": [ 7.511725144759529, 58.218232105853311 ] } },
{ "type": "Feature", "properties": { "objtype": "Brannstasjon", "anleggid": null, "brannstasjon": "Vennesla", "brannvesen": "Kristiansandsregionen BR", "forstedigitaliseringsdato": null, "oppdateringsdato": null, "opphav": "DSB", "noyaktighet": null, "informasjon": "", "stasjonstype": "L", "kasernert": "IK", "malemetode": null }, "geometry": { "type": "Point", "coordinates": [ 7.964638358679358, 58.265517789646282 ] } },
{ "type": "Feature", "properties": { "objtype": "Brannstasjon", "anleggid": null, "brannstasjon": "Rysstad", "brannvesen": "Setesdal Brannvesen IKS", "forstedigitaliseringsdato": null, "oppdateringsdato": null, "opphav": "DSB", "noyaktighet": null, "informasjon": "", "stasjonstype": "L", "kasernert": "IK", "malemetode": null }, "geometry": { "type": "Point", "coordinates": [ 7.549345437512756, 59.082236337160083 ] } },
{ "type": "Feature", "properties": { "objtype": "Brannstasjon", "anleggid": null, "brannstasjon": "Kvinesdal", "brannvesen": "Brannvesenet Sør IKS", "forstedigitaliseringsdato": null, "oppdateringsdato": null, "opphav": "DSB", "noyaktighet": null, "informasjon": "", "stasjonstype": "L", "kasernert": "IK", "malemetode": null }, "geometry": { "type": "Point", "coordinates": [ 6.968460510645344, 58.323614154224387 ] } },
{ "type": "Feature", "properties": { "objtype": "Brannstasjon", "anleggid": null, "brannstasjon": "Birkenes", "brannvesen": "Kristiansandsregionen BR", "forstedigitaliseringsdato": null, "oppdateringsdato": null, "opphav": "DSB", "noyaktighet": null, "informasjon": "", "stasjonstype": "L", "kasernert": "IK", "malemetode": null }, "geometry": { "type": "Point", "coordinates": [ 8.221386494592688, 58.33193885017252 ] } },
{ "type": "Feature", "properties": { "objtype": "Brannstasjon", "anleggid": null, "brannstasjon": "Eiken", "brannvesen": "Brannvesenet Sør IKS", "forstedigitaliseringsdato": null, "oppdateringsdato": null, "opphav": "DSB", "noyaktighet": null, "informasjon": "", "stasjonstype": "L", "kasernert": "IK", "malemetode": null }, "geometry": { "type": "Point", "coordinates": [ 7.232057511517158, 58.459951757752982 ] } },
{ "type": "Feature", "properties": { "objtype": "Brannstasjon", "anleggid": null, "brannstasjon": "Vigmostad", "brannvesen": "Brannvesenet Sør IKS", "forstedigitaliseringsdato": null, "oppdateringsdato": null, "opphav": "DSB", "noyaktighet": null, "informasjon": "", "stasjonstype": "L", "kasernert": "IK", "malemetode": null }, "geometry": { "type": "Point", "coordinates": [ 7.340004939986181, 58.201261739300541 ] } },
{ "type": "Feature", "properties": { "objtype": "Brannstasjon", "anleggid": null, "brannstasjon": "Bjelland", "brannvesen": "Brannvesenet Sør IKS", "forstedigitaliseringsdato": null, "oppdateringsdato": null, "opphav": "DSB", "noyaktighet": null, "informasjon": "", "stasjonstype": "L", "kasernert": "IK", "malemetode": null }, "geometry": { "type": "Point", "coordinates": [ 7.528239323142684, 58.383994025354767 ] } },
{ "type": "Feature", "properties": { "objtype": "Brannstasjon", "anleggid": null, "brannstasjon": "Finsland", "brannvesen": "Kristiansandsregionen BR", "forstedigitaliseringsdato": null, "oppdateringsdato": null, "opphav": "DSB", "noyaktighet": null, "informasjon": "", "stasjonstype": "L", "kasernert": "IK", "malemetode": null }, "geometry": { "type": "Point", "coordinates": [ 7.656149681900745, 58.270719929759572 ] } },
{ "type": "Feature", "properties": { "objtype": "Brannstasjon", "anleggid": null, "brannstasjon": "Hægeland", "brannvesen": "Kristiansandsregionen BR", "forstedigitaliseringsdato": null, "oppdateringsdato": null, "opphav": "DSB", "noyaktighet": null, "informasjon": "", "stasjonstype": "L", "kasernert": "IK", "malemetode": null }, "geometry": { "type": "Point", "coordinates": [ 7.749450384041672, 58.382170940682414 ] } }
]
}
